{
  "type": "FeatureCollection",
  "features": [
    {
      "type": "Feature",
      "properties": {
        "OBJECT_NAME": "INTELSAT 10 (IS-10)",
        "OBJECT_ID": "2001-019A",
        "EPOCH": "2025-11-29T11:22:43.400352",
        "MEAN_MOTION": 0.99077096,
        "ECCENTRICITY": 0.0007414,
        "INCLINATION": 8.5955,
        "RA_OF_ASC_NODE": 61.2868,
        "ARG_OF_PERICENTER": 216.7194,
        "MEAN_ANOMALY": 157.0552,
        "EPHEMERIS_TYPE": 0,
        "CLASSIFICATION_TYPE": "U",
        "NORAD_CAT_ID": 26766,
        "ELEMENT_SET_NO": 999,
        "REV_AT_EPOCH": 4360,
        "BSTAR": 0,
        "MEAN_MOTION_DOT": -3.8e-07,
        "MEAN_MOTION_DDOT": 0,
        "norad_id": 26766,
        "name": "INTELSAT 10 (IS-10)",
        "group": "intelsat",
        "longitude_deg": NaN,
        "latitude_deg": NaN,
        "alt_km": NaN,
        "orbit_class": "HEO",
        "timestamp": "2025-11-30T09:33:02.500696+00:00"
      },
      "geometry": {
        "type": "Point",
        "coordinates": [
          NaN,
          NaN
        ]
      }
    },
    {
      "type": "Feature",
      "properties": {
        "OBJECT_NAME": "INTELSAT 902 (IS-902)",
        "OBJECT_ID": "2001-039A",
        "EPOCH": "2025-11-24T17:12:13.636800",
        "MEAN_MOTION": 1.00269675,
        "ECCENTRICITY": 0.00045123,
        "INCLINATION": 5.6008,
        "RA_OF_ASC_NODE": 74.2814,
        "ARG_OF_PERICENTER": 170.1727,
        "MEAN_ANOMALY": 27.4183,
        "EPHEMERIS_TYPE": 0,
        "CLASSIFICATION_TYPE": "U",
        "NORAD_CAT_ID": 26900,
        "ELEMENT_SET_NO": 999,
        "REV_AT_EPOCH": 8864,
        "BSTAR": 0,
        "MEAN_MOTION_DOT": -2.64e-06,
        "MEAN_MOTION_DDOT": 0,
        "norad_id": 26900,
        "name": "INTELSAT 902 (IS-902)",
        "group": "intelsat",
        "longitude_deg": NaN,
        "latitude_deg": NaN,
        "alt_km": NaN,
        "orbit_class": "HEO",
        "timestamp": "2025-11-30T09:33:02.500719+00:00"
      },
      "geometry": {
        "type": "Point",
        "coordinates": [
          NaN,
          NaN
        ]
      }
    },
    {
      "type": "Feature",
      "properties": {
        "OBJECT_NAME": "INTELSAT 904 (IS-904)",
        "OBJECT_ID": "2002-007A",
        "EPOCH": "2025-11-30T01:42:31.620384",
        "MEAN_MOTION": 1.00270382,
        "ECCENTRICITY": 0.0001333,
        "INCLINATION": 6.4207,
        "RA_OF_ASC_NODE": 71.5767,
        "ARG_OF_PERICENTER": 190.0245,
        "MEAN_ANOMALY": 161.7657,
        "EPHEMERIS_TYPE": 0,
        "CLASSIFICATION_TYPE": "U",
        "NORAD_CAT_ID": 27380,
        "ELEMENT_SET_NO": 999,
        "REV_AT_EPOCH": 4976,
        "BSTAR": 0,
        "MEAN_MOTION_DOT": -2.04e-06,
        "MEAN_MOTION_DDOT": 0,
        "norad_id": 27380,
        "name": "INTELSAT 904 (IS-904)",
        "group": "intelsat",
        "longitude_deg": NaN,
        "latitude_deg": NaN,
        "alt_km": NaN,
        "orbit_class": "HEO",
        "timestamp": "2025-11-30T09:33:02.500773+00:00"
      },
      "geometry": {
        "type": "Point",
        "coordinates": [
          NaN,
          NaN
        ]
      }
    },
    {
      "type": "Feature",
      "properties": {
        "OBJECT_NAME": "DIRECTV 5 (TEMPO 1)",
        "OBJECT_ID": "2002-023A",
        "EPOCH": "2025-11-29T21:54:30.959712",
        "MEAN_MOTION": 1.00271202,
        "ECCENTRICITY": 0.0003495,
        "INCLINATION": 4.3665,
        "RA_OF_ASC_NODE": 77.8046,
        "ARG_OF_PERICENTER": 183.7811,
        "MEAN_ANOMALY": 25.9783,
        "EPHEMERIS_TYPE": 0,
        "CLASSIFICATION_TYPE": "U",
        "NORAD_CAT_ID": 27426,
        "ELEMENT_SET_NO": 999,
        "REV_AT_EPOCH": 8612,
        "BSTAR": 0,
        "MEAN_MOTION_DOT": -3.5e-07,
        "MEAN_MOTION_DDOT": 0,
        "norad_id": 27426,
        "name": "DIRECTV 5 (TEMPO 1)",
        "group": "intelsat",
        "longitude_deg": NaN,
        "latitude_deg": NaN,
        "alt_km": NaN,
        "orbit_class": "HEO",
        "timestamp": "2025-11-30T09:33:02.500787+00:00"
      },
      "geometry": {
        "type": "Point",
        "coordinates": [
          NaN,
          NaN
        ]
      }
    },
    {
      "type": "Feature",
      "properties": {
        "OBJECT_NAME": "INTELSAT 905 (IS-905)",
        "OBJECT_ID": "2002-027A",
        "EPOCH": "2025-11-29T23:29:36.852000",
        "MEAN_MOTION": 1.00272211,
        "ECCENTRICITY": 0.0002895,
        "INCLINATION": 6.2508,
        "RA_OF_ASC_NODE": 72.2017,
        "ARG_OF_PERICENTER": 182.6464,
        "MEAN_ANOMALY": 29.4733,
        "EPHEMERIS_TYPE": 0,
        "CLASSIFICATION_TYPE": "U",
        "NORAD_CAT_ID": 27438,
        "ELEMENT_SET_NO": 999,
        "REV_AT_EPOCH": 4936,
        "BSTAR": 0,
        "MEAN_MOTION_DOT": 1.15e-06,
        "MEAN_MOTION_DDOT": 0,
        "norad_id": 27438,
        "name": "INTELSAT 905 (IS-905)",
        "group": "intelsat",
        "longitude_deg": NaN,
        "latitude_deg": NaN,
        "alt_km": NaN,
        "orbit_class": "HEO",
        "timestamp": "2025-11-30T09:33:02.500794+00:00"
      },
      "geometry": {
        "type": "Point",
        "coordinates": [
          NaN,
          NaN
        ]
      }
    },
    {
      "type": "Feature",
      "properties": {
        "OBJECT_NAME": "GALAXY 3C (G-3C)",
        "OBJECT_ID": "2002-030A",
        "EPOCH": "2025-11-29T23:41:43.191744",
        "MEAN_MOTION": 1.00270829,
        "ECCENTRICITY": 0.0001328,
        "INCLINATION": 3.2296,
        "RA_OF_ASC_NODE": 80.639,
        "ARG_OF_PERICENTER": 90.0616,
        "MEAN_ANOMALY": 159.0087,
        "EPHEMERIS_TYPE": 0,
        "CLASSIFICATION_TYPE": "U",
        "NORAD_CAT_ID": 27445,
        "ELEMENT_SET_NO": 999,
        "REV_AT_EPOCH": 4449,
        "BSTAR": 0,
        "MEAN_MOTION_DOT": -1.31e-06,
        "MEAN_MOTION_DDOT": 0,
        "norad_id": 27445,
        "name": "GALAXY 3C (G-3C)",
        "group": "intelsat",
        "longitude_deg": NaN,
        "latitude_deg": NaN,
        "alt_km": NaN,
        "orbit_class": "HEO",
        "timestamp": "2025-11-30T09:33:02.500801+00:00"
      },
      "geometry": {
        "type": "Point",
        "coordinates": [
          NaN,
          NaN
        ]
      }
    },
    {
      "type": "Feature",
      "properties": {
        "OBJECT_NAME": "INTELSAT 906 (IS-906)",
        "OBJECT_ID": "2002-041A",
        "EPOCH": "2025-11-29T22:44:18.689856",
        "MEAN_MOTION": 1.00272495,
        "ECCENTRICITY": 0.000609,
        "INCLINATION": 5.2967,
        "RA_OF_ASC_NODE": 75.3824,
        "ARG_OF_PERICENTER": 189.4932,
        "MEAN_ANOMALY": 209.4124,
        "EPHEMERIS_TYPE": 0,
        "CLASSIFICATION_TYPE": "U",
        "NORAD_CAT_ID": 27513,
        "ELEMENT_SET_NO": 999,
        "REV_AT_EPOCH": 8503,
        "BSTAR": 0,
        "MEAN_MOTION_DOT": 3.5e-07,
        "MEAN_MOTION_DDOT": 0,
        "norad_id": 27513,
        "name": "INTELSAT 906 (IS-906)",
        "group": "intelsat",
        "longitude_deg": NaN,
        "latitude_deg": NaN,
        "alt_km": NaN,
        "orbit_class": "HEO",
        "timestamp": "2025-11-30T09:33:02.500819+00:00"
      },
      "geometry": {
        "type": "Point",
        "coordinates": [
          NaN,
          NaN
        ]
      }
    },
    {
      "type": "Feature",
      "properties": {
        "OBJECT_NAME": "GALAXY 13 (HORIZONS-1)",
        "OBJECT_ID": "2003-044A",
        "EPOCH": "2025-11-30T02:51:21.724416",
        "MEAN_MOTION": 1.00271051,
        "ECCENTRICITY": 0.000212,
        "INCLINATION": 0.9029,
        "RA_OF_ASC_NODE": 86.6212,
        "ARG_OF_PERICENTER": 155.3091,
        "MEAN_ANOMALY": 80.158,
        "EPHEMERIS_TYPE": 0,
        "CLASSIFICATION_TYPE": "U",
        "NORAD_CAT_ID": 27954,
        "ELEMENT_SET_NO": 999,
        "REV_AT_EPOCH": 4457,
        "BSTAR": 0,
        "MEAN_MOTION_DOT": 1.54e-06,
        "MEAN_MOTION_DDOT": 0,
        "norad_id": 27954,
        "name": "GALAXY 13 (HORIZONS-1)",
        "group": "intelsat",
        "longitude_deg": NaN,
        "latitude_deg": NaN,
        "alt_km": NaN,
        "orbit_class": "HEO",
        "timestamp": "2025-11-30T09:33:02.500976+00:00"
      },
      "geometry": {
        "type": "Point",
        "coordinates": [
          NaN,
          NaN
        ]
      }
    }
  ]
}