INTELSAT 10 (IS-10)     
1 26766U 01019A   25333.47411343 -.00000038  00000+0  00000+0 0  9991
2 26766   8.5955  61.2868 0007414 216.7194 157.0552  0.99077096 43603
INTELSAT 902 (IS-902)   
1 26900U 01039A   25328.71682450 -.00000264  00000+0  00000+0 0  9994
2 26900   5.6008  74.2814 0004512 170.1727  27.4183  1.00269675 88648
INTELSAT 904 (IS-904)   
1 27380U 02007A   25334.07119931 -.00000204  00000+0  00000+0 0  9992
2 27380   6.4207  71.5767 0001333 190.0245 161.7657  1.00270382 49767
DIRECTV 5 (TEMPO 1)     
1 27426U 02023A   25333.91285833 -.00000035  00000+0  00000+0 0  9990
2 27426   4.3665  77.8046 0003495 183.7811  25.9783  1.00271202 86125
INTELSAT 905 (IS-905)   
1 27438U 02027A   25333.97889875  .00000115  00000+0  00000+0 0  9997
2 27438   6.2508  72.2017 0002895 182.6464  29.4733  1.00272211 49367
GALAXY 3C (G-3C)        
1 27445U 02030A   25333.98730546 -.00000131  00000+0  00000+0 0  9999
2 27445   3.2296  80.6390 0001328  90.0616 159.0087  1.00270829 44498
INTELSAT 906 (IS-906)   
1 27513U 02041A   25333.94743854  .00000035  00000+0  00000+0 0  9991
2 27513   5.2967  75.3824 0006090 189.4932 209.4124  1.00272495 85037
GALAXY 13 (HORIZONS-1)  
1 27954U 03044A   25334.11900144  .00000154  00000+0  00000+0 0  9993
2 27954   0.9029  86.6212 0002120 155.3091  80.1580  1.00271051 44572
